Timestamp,METAR
2025-12-08 14:04 UTC,METAR WSSS 081400Z 33005KT 9999 FEW018 BKN300 26/23 Q1011 NOSIG
2025-12-08 13:30 UTC,METAR WSSS 081330Z 33004KT 9999 FEW018 BKN300 26/23 Q1011 NOSIG
2025-12-08 13:00 UTC,METAR WSSS 081300Z 34006KT 9999 FEW018 BKN300 27/23 Q1010 NOSIG
2025-12-08 12:30 UTC,METAR WSSS 081230Z 34006KT 9999 FEW018 BKN300 26/22 Q1010 NOSIG
2025-12-08 12:00 UTC,METAR WSSS 081200Z 35007KT 310V010 9999 FEW018 BKN300 27/22 Q1010 NOSIG
2025-12-08 11:30 UTC,METAR WSSS 081130Z 35008KT 9999 FEW018 BKN300 27/22 Q1010 NOSIG
2025-12-08 11:00 UTC,METAR WSSS 081100Z 35007KT 9999 FEW018 SCT280 BKN300 27/22 Q1009 NOSIG
2025-12-08 10:30 UTC,METAR WSSS 081030Z 35009KT 9999 FEW018 SCT280 BKN300 28/22 Q1009 NOSIG
2025-12-08 10:00 UTC,METAR WSSS 081000Z 36014KT 9999 FEW018 SCT280 28/22 Q1009 NOSIG
